[{"OBJECT_NAME":"COSMOS 2538","OBJECT_ID":"2019-039D","EPOCH":"2026-03-09T23:22:28.343424","MEAN_MOTION":15.19536029,"ECCENTRICITY":0.00437345,"INCLINATION":97.5929,"RA_OF_ASC_NODE":147.7512,"ARG_OF_PERICENTER":31.8471,"MEAN_ANOMALY":328.5393,"EPHEMERIS_TYPE":0,"CLASSIFICATION_TYPE":"U","NORAD_CAT_ID":44424,"ELEMENT_SET_NO":999,"REV_AT_EPOCH":36483,"BSTAR":0.00035711669,"MEAN_MOTION_DOT":7.713e-5,"MEAN_MOTION_DDOT":0},{"OBJECT_NAME":"STARLINK-5235","OBJECT_ID":"2022-141AE","EPOCH":"2026-03-09T23:16:42.879936","MEAN_MOTION":15.08853937,"ECCENTRICITY":0.00013128,"INCLINATION":53.2196,"RA_OF_ASC_NODE":2.6006,"ARG_OF_PERICENTER":93.1986,"MEAN_ANOMALY":266.9156,"EPHEMERIS_TYPE":0,"CLASSIFICATION_TYPE":"U","NORAD_CAT_ID":54185,"ELEMENT_SET_NO":999,"REV_AT_EPOCH":18590,"BSTAR":0.00012535185,"MEAN_MOTION_DOT":1.708e-5,"MEAN_MOTION_DDOT":0}]
